{
    "links": {
        "self": "http://www.neowsapp.com/rest/v1/neo/3567658?api_key=iIulBulltgU6a56xZRHN4H3l9WmuAYTsLGpBGhQ2"
    },
    "id": "3567658",
    "neo_reference_id": "3567658",
    "name": "(2011 LZ2)",
    "designation": "2011 LZ2",
    "nasa_jpl_url": "http://ssd.jpl.nasa.gov/sbdb.cgi?sstr=3567658",
    "absolute_magnitude_h": 25.3,
    "estimated_diameter": {
        "kilometers": {
            "estimated_diameter_min": 0.0231502122,
            "estimated_diameter_max": 0.0517654482
        },
        "meters": {
            "estimated_diameter_min": 23.150212221,
            "estimated_diameter_max": 51.7654482198
        },
        "miles": {
            "estimated_diameter_min": 0.0143848705,
            "estimated_diameter_max": 0.0321655483
        },
        "feet": {
            "estimated_diameter_min": 75.9521422633,
            "estimated_diameter_max": 169.8341531374
        }
    },
    "is_potentially_hazardous_asteroid": false,
    "close_approach_data": [
        {
            "close_approach_date": "2011-05-30",
            "close_approach_date_full": "2011-May-30 12:24",
            "epoch_date_close_approach": 1306758240000,
            "relative_velocity": {
                "kilometers_per_second": "6.2473521167",
                "kilometers_per_hour": "22490.4676201393",
                "miles_per_hour": "13974.7019498582"
            },
            "miss_distance": {
                "astronomical": "0.0162294402",
                "lunar": "6.3132522378",
                "kilometers": "2427889.685212374",
                "miles": "1508620.6947198012"
            },
            "orbiting_body": "Earth"
        }
    ],
    "orbital_data": {
        "orbit_id": "9",
        "orbit_determination_date": "2017-04-06 08:53:20",
        "first_observation_date": "2011-06-05",
        "last_observation_date": "2011-06-12",
        "data_arc_in_days": 7,
        "observations_used": 50,
        "orbit_uncertainty": "8",
        "minimum_orbit_intersection": ".00257192",
        "jupiter_tisserand_invariant": "4.741",
        "epoch_osculation": "2455721.5",
        "eccentricity": ".3063097503126384",
        "semi_major_axis": "1.38275734531136",
        "inclination": "4.855249762281579",
        "ascending_node_longitude": "253.9720478642398",
        "orbital_period": "593.90555595582",
        "perihelion_distance": ".9592052881260704",
        "perihelion_argument": "318.2647589658991",
        "aphelion_distance": "1.806309402496649",
        "perihelion_time": "2455680.041773581957",
        "mean_anomaly": "25.13019344713073",
        "mean_motion": ".6061569830250587",
        "equinox": "J2000",
        "orbit_class": {
            "orbit_class_type": "APO",
            "orbit_class_description": "Near-Earth asteroid orbits which cross the Earth’s orbit similar to that of 1862 Apollo",
            "orbit_class_range": "a (semi-major axis) > 1.0 AU; q (perihelion) < 1.017 AU"
        }
    },
    "is_sentry_object": false
}